[
    {
        "Altitude(m)": 610399.5264866282,
        "Argument of Periapsis(deg)": 0.0,
        "Eccentricity": 0.0,
        "Inclination(deg)": 60.0,
        "Latitude(deg)": 52.11132845701998,
        "Longitude(deg)": -12.415835678294673,
        "Mean Anomaly(deg)": 65.45449999999998,
        "RAAN(deg)": 40.0,
        "Satellite Name": "Test1 180",
        "Satellite Number": 180,
        "Semi-Major Axis(m)": 6980739.136638005,
        "Time(s)": 0
    },
    {
        "Altitude(m)": 610481.6781261215,
        "Argument of Periapsis(deg)": 0.00010418945913296404,
        "Eccentricity": 0.0,
        "Inclination(deg)": 60.0,
        "Latitude(deg)": 52.47093222176315,
        "Longitude(deg)": -11.63370140705989,
        "Mean Anomaly(deg)": 66.07460614546183,
        "RAAN(deg)": 39.99957995086026,
        "Satellite Name": "Test1 180",
        "Satellite Number": 180,
        "Semi-Major Axis(m)": 6980739.136638005,
        "Time(s)": 10
    }
]